OBJECT_NAME,OBJECT_ID,EPOCH,MEAN_MOTION,ECCENTRICITY,INCLINATION,RA_OF_ASC_NODE,ARG_OF_PERICENTER,MEAN_ANOMALY,EPHEMERIS_TYPE,CLASSIFICATION_TYPE,NORAD_CAT_ID,ELEMENT_SET_NO,REV_AT_EPOCH,BSTAR,MEAN_MOTION_DOT,MEAN_MOTION_DDOT
GOMX-1,2013-066Q,2026-07-02T20:19:46.816896,14.69511841,.0129392,97.6469,23.3211,27.7802,333.0238,0,U,39430,999,67221,.25436E-3,.1664E-4,0
CUBEBUG-2 (LO-74),2013-066AA,2026-07-02T19:18:06.183072,14.93892803,.005665,97.8915,132.8497,337.4394,22.4336,0,U,39440,999,67932,.51857E-3,.5629E-4,0
NEE-02 KRYSAOR,2013-066AB,2026-07-02T13:19:12.298080,14.86690645,.0066609,97.8896,122.6607,20.7402,339.6493,0,U,39441,999,67848,.32516E-3,.295E-4,0
FUNCUBE-1 (AO-73),2013-066AE,2026-07-02T19:58:49.416960,15.09682031,.0037316,97.8285,155.6072,147.9891,212.3615,0,U,39444,999,68202,.5072E-3,.8238E-4,0
UWE-3,2013-066AG,2026-07-02T20:32:11.323104,14.97140347,.0047189,97.8709,140.0374,267.5766,92.0052,0,U,39446,999,67992,.33855E-3,.3935E-4,0
SMDC ONE 2.4,2013-072H,2026-07-02T16:14:09.606048,15.18511051,.0147077,120.4917,51.8996,35.3911,325.6823,0,U,39469,999,12018,.47036E-3,.12638E-3,0
COSMOS 2488 (RODNIK-S 7),2013-076A,2026-07-02T21:29:30.776640,12.42906660,.0020842,82.4838,158.9084,62.9822,297.3382,0,U,39483,999,56784,.12502E-2,.183E-5,0
COSMOS 2489 (RODNIK-S 8),2013-076B,2026-07-02T20:54:16.825248,12.42880107,.0022665,82.4874,160.3074,62.8067,297.5319,0,U,39484,999,56789,.73359E-3,.112E-5,0
COSMOS 2490 (RODNIK-S 9),2013-076C,2026-07-02T20:13:50.008224,12.42879180,.0022907,82.4822,158.3857,77.6988,282.6654,0,U,39485,999,56782,.87603E-3,.131E-5,0
KAZEOSAT 1,2014-024A,2026-07-02T20:11:33.224928,14.42085928,.0001153,98.3205,255.8992,77.6581,282.4738,0,U,39731,999,64081,.5959E-4,.153E-5,0
COSMOS 2496 (RODNIK-S 10),2014-028A,2026-07-02T19:12:37.863072,12.42879120,.0021242,82.4462,98.9535,46.7127,313.5720,0,U,39761,999,54945,.59911E-3,.93E-6,0
COSMOS 2497 (RODNIK-S 11),2014-028B,2026-07-02T20:32:39.854976,12.42894666,.0021728,82.4511,100.6144,41.7829,318.4905,0,U,39762,999,54946,.16926E-3,.33E-6,0
COSMOS 2498 (RODNIK-S 12),2014-028C,2026-07-02T19:58:51.036960,12.42980679,.0022442,82.4471,99.1095,41.4208,318.8568,0,U,39763,999,54949,.6713E-3,.103E-5,0
HODOYOSHI-4,2014-033B,2026-07-02T20:02:52.055808,14.88162732,.0022037,97.5449,7.9026,253.2242,106.6558,0,U,40011,999,65113,.11288E-3,.992E-5,0
UNISAT-6,2014-033C,2026-07-02T15:56:14.011584,14.88321392,.0045236,97.7898,336.1049,19.2407,341.0506,0,U,40012,999,64846,.30037E-3,.2775E-4,0
DEIMOS-2,2014-033D,2026-07-02T20:35:49.740576,14.93766366,.0000861,97.5803,57.7951,73.2595,286.8719,0,U,40013,999,64006,.17394E-3,.1789E-4,0
BUGSAT-1 (TITA),2014-033E,2026-07-02T19:33:17.955360,15.15762468,.0028871,98.0430,277.2796,126.1768,234.2140,0,U,40014,999,65820,.35143E-3,.67E-4,0
SAUDISAT 4,2014-033G,2026-07-02T16:09:53.296128,14.79564269,.0045307,97.7603,329.2740,24.7459,335.5912,0,U,40016,999,64836,.9767E-4,.691E-5,0
APRIZESAT 9,2014-033J,2026-07-02T19:38:46.851648,14.74238561,.0066872,97.9081,316.6366,149.0591,211.4585,0,U,40018,999,64586,.14437E-3,.936E-5,0
BRITE-CA1 (TORONTO),2014-033L,2026-07-02T19:13:13.804608,14.72703454,.007761,97.9759,312.4427,226.2184,133.2586,0,U,40020,999,64451,.18267E-3,.1167E-4,0
DUCHIFAT-1,2014-033M,2026-07-02T02:25:15.934368,15.67889029,.00000967,98.0445,244.3920,180.5510,179.5749,0,U,40021,999,65808,.12874894E-2,.143832E-2,0
NANOSATC-BR1,2014-033Q,2026-07-02T19:39:18.117216,15.31971066,.0005214,98.0706,217.5968,125.2783,234.8945,0,U,40024,999,65637,.67311E-3,.20733E-3,0
