GOMX-1                  
1 39430U 13066Q   26183.84706964  .00001664  00000+0  25436-3 0  9998
2 39430  97.6469  23.3211 0129392  27.7802 333.0238 14.69511841672216
CUBEBUG-2 (LO-74)       
1 39440U 13066AA  26183.80423823  .00005629  00000+0  51857-3 0  9996
2 39440  97.8915 132.8497 0056650 337.4394  22.4336 14.93892803679324
NEE-02 KRYSAOR          
1 39441U 13066AB  26183.55500345  .00002950  00000+0  32516-3 0  9999
2 39441  97.8896 122.6607 0066609  20.7402 339.6493 14.86690645678485
FUNCUBE-1 (AO-73)       
1 39444U 13066AE  26183.83251640  .00008238  00000+0  50720-3 0  9996
2 39444  97.8285 155.6072 0037316 147.9891 212.3615 15.09682031682023
UWE-3                   
1 39446U 13066AG  26183.85568661  .00003935  00000+0  33855-3 0  9993
2 39446  97.8709 140.0374 0047189 267.5766  92.0052 14.97140347679926
SMDC ONE 2.4            
1 39469U 13072H   26183.67650007  .00012638  00000+0  47036-3 0  9997
2 39469 120.4917  51.8996 0147077  35.3911 325.6823 15.18511051120182
COSMOS 2488 (RODNIK-S 7)
1 39483U 13076A   26183.89549510  .00000183  00000+0  12502-2 0  9998
2 39483  82.4838 158.9084 0020842  62.9822 297.3382 12.42906660567842
COSMOS 2489 (RODNIK-S 8)
1 39484U 13076B   26183.87102807  .00000112  00000+0  73359-3 0  9991
2 39484  82.4874 160.3074 0022665  62.8067 297.5319 12.42880107567898
COSMOS 2490 (RODNIK-S 9)
1 39485U 13076C   26183.84293991  .00000131  00000+0  87603-3 0  9992
2 39485  82.4822 158.3857 0022907  77.6988 282.6654 12.42879180567822
KAZEOSAT 1              
1 39731U 14024A   26183.84135677  .00000153  00000+0  59590-4 0  9995
2 39731  98.3205 255.8992 0001153  77.6581 282.4738 14.42085928640812
COSMOS 2496 (RODNIK-S *)
1 39761U 14028A   26183.80043823  .00000093  00000+0  59911-3 0  9998
2 39761  82.4462  98.9535 0021242  46.7127 313.5720 12.42879120549455
COSMOS 2497 (RODNIK-S *)
1 39762U 14028B   26183.85601684  .00000033  00000+0  16926-3 0  9992
2 39762  82.4511 100.6144 0021728  41.7829 318.4905 12.42894666549463
COSMOS 2498 (RODNIK-S *)
1 39763U 14028C   26183.83253515  .00000103  00000+0  67130-3 0  9998
2 39763  82.4471  99.1095 0022442  41.4208 318.8568 12.42980679549490
HODOYOSHI-4             
1 40011U 14033B   26183.83532472  .00000992  00000+0  11288-3 0  9993
2 40011  97.5449   7.9026 0022037 253.2242 106.6558 14.88162732651133
UNISAT-6                
1 40012U 14033C   26183.66405106  .00002775  00000+0  30037-3 0  9992
2 40012  97.7898 336.1049 0045236  19.2407 341.0506 14.88321392648464
DEIMOS-2                
1 40013U 14033D   26183.85821459  .00001789  00000+0  17394-3 0  9992
2 40013  97.5803  57.7951 0000861  73.2595 286.8719 14.93766366640060
BUGSAT-1 (TITA)         
1 40014U 14033E   26183.81479115  .00006700  00000+0  35143-3 0  9997
2 40014  98.0430 277.2796 0028871 126.1768 234.2140 15.15762468658204
SAUDISAT 4              
1 40016U 14033G   26183.67353352  .00000691  00000+0  97670-4 0  9994
2 40016  97.7603 329.2740 0045307  24.7459 335.5912 14.79564269648360
APRIZESAT 9             
1 40018U 14033J   26183.81859782  .00000936  00000+0  14437-3 0  9991
2 40018  97.9081 316.6366 0066872 149.0591 211.4585 14.74238561645864
BRITE-CA1 (TORONTO)     
1 40020U 14033L   26183.80085422  .00001167  00000+0  18267-3 0  9997
2 40020  97.9759 312.4427 0077610 226.2184 133.2586 14.72703454644518
DUCHIFAT-1              
1 40021U 14033M   26183.10087887  .00143832  00000+0  12875-2 0  9992
2 40021  98.0445 244.3920 0000096 180.5510 179.5749 15.67889029658082
NANOSATC-BR1            
1 40024U 14033Q   26183.81895969  .00020733  00000+0  67311-3 0  9991
2 40024  98.0706 217.5968 0005214 125.2783 234.8945 15.31971066656371
